GLOBALSTAR M068 [-]     
1 32266U 07048D   23248.07624861 -.00000059  00000+0  25028-3 0  9995
2 32266  51.9880 126.9573 0001165 104.2730  47.9854 12.62765730735297
GLOBALSTAR M079 [+]     
1 37188U 10054A   23248.19584771 -.00000087  00000+0  93872-4 0  9996
2 37188  52.0058 321.5121 0000354  99.7934 278.3680 12.62267389594241
GLOBALSTAR M074 [+]     
1 37189U 10054B   23248.22591775 -.00000081  00000+0  12895-3 0  9992
2 37189  52.0031 320.8441 0000583 106.3571 288.5502 12.62269441594850
GLOBALSTAR M076 [+]     
1 37190U 10054C   23248.59350421 -.00000078  00000+0  14336-3 0  9993
2 37190  52.0042 319.8350 0000722  53.4672  93.7411 12.62260659594611
GLOBALSTAR M077 [+]     
1 37191U 10054D   23248.58684748 -.00000099  00000+0  25445-4 0  9992
2 37191  52.0059 276.5260 0000427 104.0534  71.4402 12.62260532594984
GLOBALSTAR M075 [+]     
1 37192U 10054E   23248.52366662 -.00000089  00000+0  81711-4 0  9996
2 37192  51.9976   2.6647 0000481  91.5073  37.4541 12.62260774593833
GLOBALSTAR M073 [+]     
1 37193U 10054F   23248.53160861 -.00000086  00000+0  10096-3 0  9995
2 37193  52.0047 275.9665 0000343 103.5303  61.2934 12.62267241595713
GLOBALSTAR M083 [+]     
1 37739U 11033A   23248.30114750 -.00000107  00000+0 -18012-4 0  9992
2 37739  51.9843 226.2854 0000146 132.0717   6.0246 12.62268700564650
GLOBALSTAR M088 [+]     
1 37740U 11033B   23248.03749753 -.00000080  00000+0  13097-3 0  9997
2 37740  51.9728 133.1286 0000397  49.2656  89.8122 12.62265198560160
GLOBALSTAR M091 [+]     
1 37741U 11033C   23248.81505216 -.00000105  00000+0 -61220-5 0  9990
2 37741  51.9990  93.1512 0000448  66.3167 307.2121 12.62266033561316
GLOBALSTAR M085 [+]     
1 37742U 11033D   23248.40655113 -.00000108  00000+0 -26000-4 0  9997
2 37742  51.9878  46.0067 0000553  95.3977 281.8439 12.62266617561511
GLOBALSTAR M081 [+]     
1 37743U 11033E   23248.28493142 -.00000110  00000+0 -32077-4 0  9990
2 37743  51.9967  48.7633 0000536  69.0085 354.8814 12.62270640561641
GLOBALSTAR M089 [+]     
1 37744U 11033F   23248.49612538 -.00000100  00000+0  18573-4 0  9999
2 37744  51.9958   2.4724 0000806  83.0482  40.6868 12.62266306562517
GLOBALSTAR M084 [+]     
1 38040U 11080A   23248.36211204 -.00000091  00000+0  71492-4 0  9990
2 38040  51.9986 229.8244 0000536  64.8505 109.0341 12.62265394540476
GLOBALSTAR M080 [+]     
1 38041U 11080B   23248.32805253 -.00000089  00000+0  84873-4 0  9994
2 38041  52.0039 231.3054 0000628  45.0907  94.4646 12.62264201540598
GLOBALSTAR M082 [+]     
1 38042U 11080C   23248.26751406 -.00000082  00000+0  12001-3 0  9994
2 38042  52.0067 186.8666 0000337 163.5193   0.7963 12.62270286541293
GLOBALSTAR M092 [+]     
1 38043U 11080D   23248.47467598 -.00000091  00000+0  73791-4 0  9998
2 38043  52.0076 276.5799 0000688  92.9753  53.3929 12.62272034539773
GLOBALSTAR M090 [+]     
1 38044U 11080E   23248.21001319 -.00000076  00000+0  15391-3 0  9990
2 38044  51.9875 181.6895 0000224  54.6885  88.1807 12.62267279541408
GLOBALSTAR M086 [+]     
1 38045U 11080F   23248.23733116 -.00000084  00000+0  10956-3 0  9991
2 38045  51.9891 182.1052 0001108 340.7546 167.2048 12.62280257541354
GLOBALSTAR M097 [+]     
1 39072U 13005A   23248.86503895 -.00000108  00000+0 -25574-4 0  9990
2 39072  52.0039  94.0821 0000428  69.5175 290.5738 12.62270479488760
GLOBALSTAR M093 [+]     
1 39073U 13005B   23248.83841909 -.00000108  00000+0 -21505-4 0  9999
2 39073  51.9806  88.5059 0000293  46.6783 313.4108 12.62266416488754
GLOBALSTAR M094 [+]     
1 39074U 13005C   23248.04663828 -.00000094  00000+0  52055-4 0  9992
2 39074  51.9986   4.6493 0000501  95.8706 264.2218 12.62267050490144
GLOBALSTAR M096 [+]     
1 39075U 13005D   23248.45560118 -.00000109  00000+0 -29996-4 0  9992
2 39075  52.0079  51.4075 0000460  83.5716 276.5203 12.62268202489110
GLOBALSTAR M078 [+]     
1 39076U 13005E   23248.11220037 -.00000088  00000+0  90019-4 0  9998
2 39076  51.9864 137.8484 0000918 143.6394 216.4535 12.62271183487900
GLOBALSTAR M095 [+]     
1 39077U 13005F   23248.05993880 -.00000073  00000+0  17193-3 0  9990
2 39077  51.9794 135.5313 0000300 145.1584 214.9302 12.62268495487549
GLOBALSTAR M087 [+]     
1 52888U 22064A   23248.59047615 -.00000091  00000+0  70777-4 0  9993
2 52888  51.9752 124.2262 0009717   3.8905 356.2070 13.37551960 59300
